[{"OBJECT_NAME":"STARLINK-30069","OBJECT_ID":"2023-079M","EPOCH":"2026-03-08T11:34:15.947328","MEAN_MOTION":15.26726881,"ECCENTRICITY":4.69e-5,"INCLINATION":42.9986,"RA_OF_ASC_NODE":110.4464,"ARG_OF_PERICENTER":272.6695,"MEAN_ANOMALY":87.4103,"EPHEMERIS_TYPE":0,"CLASSIFICATION_TYPE":"U","NORAD_CAT_ID":56834,"ELEMENT_SET_NO":999,"REV_AT_EPOCH":15274,"BSTAR":-8.0472e-5,"MEAN_MOTION_DOT":-2.416e-5,"MEAN_MOTION_DDOT":0},{"OBJECT_NAME":"STARLINK-31388","OBJECT_ID":"2024-076B","EPOCH":"2026-03-09T04:32:35.635776","MEAN_MOTION":15.2758107,"ECCENTRICITY":8.192e-5,"INCLINATION":43.0037,"RA_OF_ASC_NODE":12.0667,"ARG_OF_PERICENTER":304.7804,"MEAN_ANOMALY":55.2971,"EPHEMERIS_TYPE":0,"CLASSIFICATION_TYPE":"U","NORAD_CAT_ID":59565,"ELEMENT_SET_NO":999,"REV_AT_EPOCH":10642,"BSTAR":-0.00010530396,"MEAN_MOTION_DOT":-3.158e-5,"MEAN_MOTION_DDOT":0}]
